IRIDIUM 135             
1 43070U 17083A   26176.45401824  .00000002  00000+0 -63608-5 0  9993
2 43070  86.3969 318.5588 0002061  92.4836 267.6596 14.34217548445335
IRIDIUM 138             
1 43071U 17083B   26176.47938871  .00000057  00000+0  13461-4 0  9993
2 43071  86.3985 318.2447 0002264  87.3823 272.7632 14.34217859445321
IRIDIUM 116             
1 43072U 17083C   26176.44767552  .00000137  00000+0  41857-4 0  9996
2 43072  86.3972 318.5471 0002137 101.4209 258.7227 14.34217843445353
IRIDIUM 130             
1 43073U 17083D   26176.48572904  .00000009  00000+0 -39944-5 0  9990
2 43073  86.3976 318.8075 0001875  96.6219 263.5191 14.34216462445300
IRIDIUM 151             
1 43074U 17083E   26176.46036094  .00000045  00000+0  88594-5 0  9998
2 43074  86.3971 318.5996 0002194  94.0651 266.0796 14.34217720445321
IRIDIUM 134             
1 43075U 17083F   26176.42864763  .00000112  00000+0  33008-4 0  9991
2 43075  86.3973 318.6211 0002129  93.9057 266.2382 14.34218043445288
IRIDIUM 137             
1 43076U 17083G   26176.44133347  .00000028  00000+0  30969-5 0  9991
2 43076  86.3975 318.7088 0002470 102.2628 257.8844 14.34217755445357
IRIDIUM 141             
1 43077U 17083H   26176.43499043  .00000037  00000+0  62022-5 0  9994
2 43077  86.3970 318.5416 0002208  91.2517 268.8932 14.34217761445356
IRIDIUM 153             
1 43078U 17083J   26176.38716938 -.00000026  00000+0 -16508-4 0  9991
2 43078  86.3964 287.0425 0002086  90.8317 269.3118 14.34217236446458
IRIDIUM 131             
1 43079U 17083K   26176.49207391 -.00000004  00000+0 -84966-5 0  9992
2 43079  86.3973 318.7044 0002127  92.4031 267.7408 14.34217173445290
IRIDIUM 144             
1 43249U 18030A   26176.39350636  .00000221  00000+0  71894-4 0  9998
2 43249  86.3962 286.9686 0002225  98.4046 261.7403 14.34220188431313
IRIDIUM 149             
1 43250U 18030B   26176.53939193 -.00000006  00000+0 -91573-5 0  9997
2 43250  86.3962 286.8747 0002198  94.2557 265.8890 14.34217359431357
IRIDIUM 157             
1 43251U 18030C   26176.55841914 -.00000013  00000+0 -11711-4 0  9996
2 43251  86.3964 286.9202 0002144  94.9894 265.1546 14.34217493431337
IRIDIUM 140             
1 43252U 18030D   26176.36814007  .00000153  00000+0  47475-4 0  9998
2 43252  86.3962 287.0120 0002135  95.1886 264.9554 14.34217126431363
IRIDIUM 145             
1 43253U 18030E   26176.56476151  .00000042  00000+0  80050-5 0  9999
2 43253  86.3962 286.9021 0002181 103.1283 257.0156 14.34217764431329
IRIDIUM 146             
1 43254U 18030F   26176.40619707  .00000072  00000+0  18490-4 0  9990
2 43254  86.3962 286.9805 0002235  98.0207 262.1243 14.34217622431314
IRIDIUM 148             
1 43255U 18030G   26176.58378971  .00000012  00000+0 -26600-5 0  9993
2 43255  86.3964 286.9497 0002206  96.1255 264.0192 14.34217663431379
IRIDIUM 142             
1 43256U 18030H   26176.55207652  .00000027  00000+0  26145-5 0  9997
2 43256  86.3960 286.8518 0002156 100.1836 259.9603 14.34217707431339
IRIDIUM 150             
1 43257U 18030J   26176.38082616  .00000230  00000+0  75034-4 0  9996
2 43257  86.3965 287.0397 0002169  95.6847 264.4596 14.34218192431338
IRIDIUM 143             
1 43258U 18030K   26176.36179886  .00000215  00000+0  69795-4 0  9991
2 43258  86.3968 287.1406 0002175  97.7777 262.3666 14.34217703431260
IRIDIUM 161             
1 43478U 18047C   26176.48869168  .00000297  00000+0  82401-4 0  9994
2 43478  86.4481  85.0005 0002505  81.5205 278.6279 14.43282845426330
IRIDIUM 152             
1 43479U 18047D   26176.26474777  .00000266  00000+0  87970-4 0  9991
2 43479  86.3956  84.9552 0002313  82.7654 277.3805 14.34217765423641
IRIDIUM 147             
1 43480U 18047E   26176.48039659 -.00000016  00000+0 -12854-4 0  9997
2 43480  86.3956  84.8703 0002035  87.0024 273.1405 14.34217397423674
IRIDIUM 110             
1 43481U 18047F   26176.48673964 -.00000032  00000+0 -18616-4 0  9991
2 43481  86.3957  84.9598 0002363  78.6843 281.4619 14.34217269423664
IRIDIUM 162             
1 43482U 18047G   26176.48239229  .00000242  00000+0  65843-4 0  9999
2 43482  86.4482  84.8940 0002212  84.0924 276.0529 14.43278154426329
IRIDIUM 160             
1 43569U 18061A   26176.57211228  .00000031  00000+0  38493-5 0  9998
2 43569  86.3957  53.2913 0002268  85.7595 274.3860 14.34217725414574
IRIDIUM 166             
1 43570U 18061B   26176.17887069  .00000002  00000+0 -62078-5 0  9993
2 43570  86.3951  53.4059 0002012  87.5959 272.5467 14.34217600414546
IRIDIUM 158             
1 43571U 18061C   26176.56576906  .00000107  00000+0  31154-4 0  9997
2 43571  86.3952  53.2541 0002211  83.8546 276.2902 14.34217566414562
IRIDIUM 165             
1 43572U 18061D   26176.38183356  .00000158  00000+0  49299-4 0  9996
2 43572  86.3957  53.3777 0002159  89.4822 270.6622 14.34217487414569
IRIDIUM 155             
1 43573U 18061E   26176.41354722  .00000034  00000+0  50284-5 0  9998
2 43573  86.3953  53.2330 0002070  84.4497 275.6935 14.34217653414539
