OBJECT_NAME,OBJECT_ID,EPOCH,MEAN_MOTION,ECCENTRICITY,INCLINATION,RA_OF_ASC_NODE,ARG_OF_PERICENTER,MEAN_ANOMALY,EPHEMERIS_TYPE,CLASSIFICATION_TYPE,NORAD_CAT_ID,ELEMENT_SET_NO,REV_AT_EPOCH,BSTAR,MEAN_MOTION_DOT,MEAN_MOTION_DDOT
IRIDIUM 135,2017-083A,2026-06-25T10:53:47.175936,14.34217548,.00020611,86.3969,318.5588,92.4836,267.6596,0,U,43070,999,44533,-.6360848E-5,.2E-7,0
IRIDIUM 138,2017-083B,2026-06-25T11:30:19.184544,14.34217859,.00022647,86.3985,318.2447,87.3823,272.7632,0,U,43071,999,44532,.13460813E-4,.57E-6,0
IRIDIUM 116,2017-083C,2026-06-25T10:44:39.164928,14.34217843,.00021377,86.3972,318.5471,101.4209,258.7227,0,U,43072,999,44535,.41857077E-4,.137E-5,0
IRIDIUM 130,2017-083D,2026-06-25T11:39:26.989056,14.34216462,.00018758,86.3976,318.8075,96.6219,263.5191,0,U,43073,999,44530,-.3994369E-5,.9E-7,0
IRIDIUM 151,2017-083E,2026-06-25T11:02:55.185216,14.34217720,.00021943,86.3971,318.5996,94.0651,266.0796,0,U,43074,999,44532,.885937E-5,.45E-6,0
IRIDIUM 134,2017-083F,2026-06-25T10:17:15.155232,14.34218043,.00021298,86.3973,318.6211,93.9057,266.2382,0,U,43075,999,44528,.33008244E-4,.112E-5,0
IRIDIUM 137,2017-083G,2026-06-25T10:35:31.211808,14.34217755,.00024709,86.3975,318.7088,102.2628,257.8844,0,U,43076,999,44535,.3096859E-5,.28E-6,0
IRIDIUM 141,2017-083H,2026-06-25T10:26:23.173152,14.34217761,.00022089,86.3970,318.5416,91.2517,268.8932,0,U,43077,999,44535,.6202162E-5,.37E-6,0
IRIDIUM 153,2017-083J,2026-06-25T09:17:31.434432,14.34217236,.00020863,86.3964,287.0425,90.8317,269.3118,0,U,43078,999,44645,-.16508071E-4,-.26E-6,0
IRIDIUM 131,2017-083K,2026-06-25T11:48:35.185824,14.34217173,.00021279,86.3973,318.7044,92.4031,267.7408,0,U,43079,999,44529,-.8496611E-5,-.4E-7,0
IRIDIUM 144,2018-030A,2026-06-25T09:26:38.949504,14.34220188,.00022251,86.3962,286.9686,98.4046,261.7403,0,U,43249,999,43131,.71894356E-4,.221E-5,0
IRIDIUM 149,2018-030B,2026-06-25T12:56:43.462752,14.34217359,.00021986,86.3962,286.8747,94.2557,265.8890,0,U,43250,999,43135,-.9157288E-5,-.6E-7,0
IRIDIUM 157,2018-030C,2026-06-25T13:24:07.413696,14.34217493,.00021449,86.3964,286.9202,94.9894,265.1546,0,U,43251,999,43133,-.11710984E-4,-.13E-6,0
IRIDIUM 140,2018-030D,2026-06-25T08:50:07.302048,14.34217126,.0002135,86.3962,287.0120,95.1886,264.9554,0,U,43252,999,43136,.47475367E-4,.153E-5,0
IRIDIUM 145,2018-030E,2026-06-25T13:33:15.394464,14.34217764,.00021818,86.3962,286.9021,103.1283,257.0156,0,U,43253,999,43132,.8005005E-5,.42E-6,0
IRIDIUM 146,2018-030F,2026-06-25T09:44:55.426848,14.34217622,.00022353,86.3962,286.9805,98.0207,262.1243,0,U,43254,999,43131,.1848962E-4,.72E-6,0
IRIDIUM 148,2018-030G,2026-06-25T14:00:39.430944,14.34217663,.00022061,86.3964,286.9497,96.1255,264.0192,0,U,43255,999,43137,-.2660027E-5,.12E-6,0
IRIDIUM 142,2018-030H,2026-06-25T13:14:59.411328,14.34217707,.00021566,86.3960,286.8518,100.1836,259.9603,0,U,43256,999,43133,.2614548E-5,.27E-6,0
IRIDIUM 150,2018-030J,2026-06-25T09:08:23.380224,14.34218192,.00021693,86.3965,287.0397,95.6847,264.4596,0,U,43257,999,43133,.75033712E-4,.23E-5,0
IRIDIUM 143,2018-030K,2026-06-25T08:40:59.421504,14.34217703,.00021752,86.3968,287.1406,97.7777,262.3666,0,U,43258,999,43126,.69795022E-4,.215E-5,0
IRIDIUM 161,2018-047C,2026-06-25T11:43:42.961152,14.43282845,.00025051,86.4481,85.0005,81.5205,278.6279,0,U,43478,999,42633,.82400679E-4,.297E-5,0
IRIDIUM 152,2018-047D,2026-06-25T06:21:14.207328,14.34217765,.00023135,86.3956,84.9552,82.7654,277.3805,0,U,43479,999,42364,.87970134E-4,.266E-5,0
IRIDIUM 147,2018-047E,2026-06-25T11:31:46.265376,14.34217397,.00020358,86.3956,84.8703,87.0024,273.1405,0,U,43480,999,42367,-.12854206E-4,-.16E-6,0
IRIDIUM 110,2018-047F,2026-06-25T11:40:54.304896,14.34217269,.00023635,86.3957,84.9598,78.6843,281.4619,0,U,43481,999,42366,-.18615823E-4,-.32E-6,0
IRIDIUM 162,2018-047G,2026-06-25T11:34:38.693856,14.43278154,.00022128,86.4482,84.8940,84.0924,276.0529,0,U,43482,999,42632,.65842648E-4,.242E-5,0
IRIDIUM 160,2018-061A,2026-06-25T13:43:50.500992,14.34217725,.00022682,86.3957,53.2913,85.7595,274.3860,0,U,43569,999,41457,.3849262E-5,.31E-6,0
IRIDIUM 166,2018-061B,2026-06-25T04:17:34.427616,14.34217600,.00020125,86.3951,53.4059,87.5959,272.5467,0,U,43570,999,41454,-.62078E-5,.2E-7,0
IRIDIUM 158,2018-061C,2026-06-25T13:34:42.446784,14.34217566,.0002211,86.3952,53.2541,83.8546,276.2902,0,U,43571,999,41456,.31154074E-4,.107E-5,0
IRIDIUM 165,2018-061D,2026-06-25T09:09:50.419584,14.34217487,.00021592,86.3957,53.3777,89.4822,270.6622,0,U,43572,999,41456,.49299072E-4,.158E-5,0
IRIDIUM 155,2018-061E,2026-06-25T09:55:30.479808,14.34217653,.00020701,86.3953,53.2330,84.4497,275.6935,0,U,43573,999,41453,.5028408E-5,.34E-6,0
